[{"OBJECT_NAME":"SKYKRAFT-1A","OBJECT_ID":"2023-001AX","EPOCH":"2026-03-09T17:03:19.828224","MEAN_MOTION":15.28083228,"ECCENTRICITY":0.00112767,"INCLINATION":97.3349,"RA_OF_ASC_NODE":127.629,"ARG_OF_PERICENTER":121.5092,"MEAN_ANOMALY":238.7251,"EPHEMERIS_TYPE":0,"CLASSIFICATION_TYPE":"U","NORAD_CAT_ID":55054,"ELEMENT_SET_NO":999,"REV_AT_EPOCH":17652,"BSTAR":0.0003006872,"MEAN_MOTION_DOT":8.177e-5,"MEAN_MOTION_DDOT":0},{"OBJECT_NAME":"STARLINK-34864","OBJECT_ID":"2025-189H","EPOCH":"2026-03-09T14:19:29.078112","MEAN_MOTION":15.30191136,"ECCENTRICITY":0.000108,"INCLINATION":53.1579,"RA_OF_ASC_NODE":207.0961,"ARG_OF_PERICENTER":83.5896,"MEAN_ANOMALY":276.5227,"EPHEMERIS_TYPE":0,"CLASSIFICATION_TYPE":"U","NORAD_CAT_ID":65330,"ELEMENT_SET_NO":999,"REV_AT_EPOCH":3109,"BSTAR":0.00070413,"MEAN_MOTION_DOT":0.00020547,"MEAN_MOTION_DDOT":0}]
